GLOBALSTAR M035 [-]     
1 25851U 99037A   23250.41098316 -.00000108  00000+0 -16764-2 0  9999
2 25851  51.9961  61.7709 0014077  14.1907 356.4169 11.04526355 24579
GLOBALSTAR M032 [-]     
1 25852U 99037B   23250.57114170 -.00000130  00000+0 -20267-2 0  9992
2 25852  51.9944 291.3726 0008045 153.2085 206.9131 11.19044668 62175
GLOBALSTAR M051 [-]     
1 25853U 99037C   23250.14479603 -.00000045  00000+0  67284-3 0  9996
2 25853  51.9780 166.6067 0001571 114.5006 245.5968 11.42190775 58221
GLOBALSTAR M048 [-]     
1 25872U 99041A   23250.79153860 -.00000073  00000+0 -87274-4 0  9991
2 25872  51.9367  75.0009 0013654 138.5733 234.5402 11.33839500 51433
GLOBALSTAR M026 [-]     
1 25873U 99041B   23250.07095749  .00000013  00000+0  28514-2 0  9996
2 25873  51.9994 187.3378 0001525 285.2132  85.4353 11.06822622 76615
GLOBALSTAR M043 [-]     
1 25874U 99041C   23250.77063115 -.00000063  00000+0  16234-3 0  9999
2 25874  51.9390 156.8572 0012974 288.3907 104.9116 11.25673797 49855
